ONEWEB-0240             
1 48785U 21045U   24090.92174832  .00000049  00000+0  95112-4 0  9999
2 48785  87.8995  60.0189 0001453  89.2923 270.8374 13.15548917138131
ONEWEB-0210             
1 48787U 21045W   24090.96688721 -.00000619  00000+0 -16772-2 0  9990
2 48787  87.8985  60.0199 0001791  61.7820 298.3491 13.15551996138056
ONEWEB-0214             
1 48788U 21045X   24090.90035601  .00000207  00000+0  51705-3 0  9995
2 48788  87.8993  60.0216 0001855  61.9259 298.2059 13.15548791138019
ONEWEB-0213             
1 48790U 21045Z   24090.89558537  .00000209  00000+0  52189-3 0  9993
2 48790  87.8992  60.0533 0001494  79.5091 280.6208 13.15550471138166
ONEWEB-0212             
1 48791U 21045AA  24090.94868336  .00000007  00000+0 -14798-4 0  9993
2 48791  87.8995  60.0237 0001941  86.2091 273.9261 13.15548820138162
ONEWEB-0227             
1 48792U 21045AB  24090.94788116 -.00000045  00000+0 -15268-3 0  9996
2 48792  87.8994  60.0404 0001775  83.9052 276.2280 13.15546932138118
